[
    {
        "Altitude(m)": 612513.9573035606,
        "Argument of Periapsis(deg)": 0.0,
        "Eccentricity": 0.0,
        "Inclination(deg)": 60.0,
        "Latitude(deg)": -28.136046393620116,
        "Longitude(deg)": -57.08685787930096,
        "Mean Anomaly(deg)": -147.27269999999996,
        "RAAN(deg)": 205.0,
        "Satellite Name": "Test1 915",
        "Satellite Number": 915,
        "Semi-Major Axis(m)": 6980739.136638005,
        "Time(s)": 0
    },
    {
        "Altitude(m)": 612708.3254802495,
        "Argument of Periapsis(deg)": 0.00010418945913296404,
        "Eccentricity": 0.0,
        "Inclination(deg)": 60.0,
        "Latitude(deg)": -28.647785222925883,
        "Longitude(deg)": -56.729626635095656,
        "Mean Anomaly(deg)": -146.65259385453817,
        "RAAN(deg)": 204.99957995086024,
        "Satellite Name": "Test1 915",
        "Satellite Number": 915,
        "Semi-Major Axis(m)": 6980739.136638005,
        "Time(s)": 10
    },
    {
        "Altitude(m)": 612903.5203157795,
        "Argument of Periapsis(deg)": 0.0002083789182659281,
        "Eccentricity": 0.0,
        "Inclination(deg)": 60.0,
        "Latitude(deg)": -29.158283894072028,
        "Longitude(deg)": -56.36852814417575,
        "Mean Anomaly(deg)": -146.03248770907635,
        "RAAN(deg)": 204.99915990172053,
        "Satellite Name": "Test1 915",
        "Satellite Number": 915,
        "Semi-Major Axis(m)": 6980739.136638005,
        "Time(s)": 20
    },
    {
        "Altitude(m)": 613099.4705999773,
        "Argument of Periapsis(deg)": 0.00031256837739889213,
        "Eccentricity": 0.0,
        "Inclination(deg)": 60.0,
        "Latitude(deg)": -29.6675053379446,
        "Longitude(deg)": -56.00345093540603,
        "Mean Anomaly(deg)": -145.41238156361453,
        "RAAN(deg)": 204.99873985258077,
        "Satellite Name": "Test1 915",
        "Satellite Number": 915,
        "Semi-Major Axis(m)": 6980739.136638005,
        "Time(s)": 30
    },
    {
        "Altitude(m)": 613296.1046408188,
        "Argument of Periapsis(deg)": 0.0004167578365318562,
        "Eccentricity": 0.0,
        "Inclination(deg)": 60.0,
        "Latitude(deg)": -30.175411494658366,
        "Longitude(deg)": -55.63428055020531,
        "Mean Anomaly(deg)": -144.7922754181527,
        "RAAN(deg)": 204.99831980344103,
        "Satellite Name": "Test1 915",
        "Satellite Number": 915,
        "Semi-Major Axis(m)": 6980739.136638005,
        "Time(s)": 40
    },
    {
        "Altitude(m)": 613493.3502961427,
        "Argument of Periapsis(deg)": 0.0005209472956648203,
        "Eccentricity": 0.0,
        "Inclination(deg)": 60.0,
        "Latitude(deg)": -30.681963275048606,
        "Longitude(deg)": -55.26090048485965,
        "Mean Anomaly(deg)": -144.17216927269087,
        "RAAN(deg)": 204.99789975430127,
        "Satellite Name": "Test1 915",
        "Satellite Number": 915,
        "Semi-Major Axis(m)": 6980739.136638005,
        "Time(s)": 50
    },
    {
        "Altitude(m)": 613691.1350055725,
        "Argument of Periapsis(deg)": 0.0006251367547977843,
        "Eccentricity": 0.0,
        "Inclination(deg)": 60.0,
        "Latitude(deg)": -31.18712052082253,
        "Longitude(deg)": -54.883191619845995,
        "Mean Anomaly(deg)": -143.55206312722902,
        "RAAN(deg)": 204.99747970516157,
        "Satellite Name": "Test1 915",
        "Satellite Number": 915,
        "Semi-Major Axis(m)": 6980739.136638005,
        "Time(s)": 60
    },
    {
        "Altitude(m)": 613889.3858225571,
        "Argument of Periapsis(deg)": 0.0007293262139307483,
        "Eccentricity": 0.0,
        "Inclination(deg)": 60.0,
        "Latitude(deg)": -31.69084196333082,
        "Longitude(deg)": -54.5010316492073,
        "Mean Anomaly(deg)": -142.93195698176717,
        "RAAN(deg)": 204.99705965602178,
        "Satellite Name": "Test1 915",
        "Satellite Number": 915,
        "Semi-Major Axis(m)": 6980739.136638005,
        "Time(s)": 70
    },
    {
        "Altitude(m)": 614088.0294466359,
        "Argument of Periapsis(deg)": 0.0008335156730637124,
        "Eccentricity": 0.0,
        "Inclination(deg)": 60.0,
        "Latitude(deg)": -32.19308518092211,
        "Longitude(deg)": -54.11429602303978,
        "Mean Anomaly(deg)": -142.31185083630535,
        "RAAN(deg)": 204.99663960688207,
        "Satellite Name": "Test1 915",
        "Satellite Number": 915,
        "Semi-Major Axis(m)": 6980739.136638005,
        "Time(s)": 80
    },
    {
        "Altitude(m)": 614286.9922558338,
        "Argument of Periapsis(deg)": 0.0009377051321966765,
        "Eccentricity": 0.0,
        "Inclination(deg)": 60.0,
        "Latitude(deg)": -32.69380655483985,
        "Longitude(deg)": -53.72285737755543,
        "Mean Anomaly(deg)": -141.6917446908435,
        "RAAN(deg)": 204.9962195577423,
        "Satellite Name": "Test1 915",
        "Satellite Number": 915,
        "Semi-Major Axis(m)": 6980739.136638005,
        "Time(s)": 90
    },
    {
        "Altitude(m)": 614486.2003391405,
        "Argument of Periapsis(deg)": 0.0010418945913296407,
        "Eccentricity": 0.0,
        "Inclination(deg)": 60.0,
        "Latitude(deg)": -33.19296122362599,
        "Longitude(deg)": -53.32658496582734,
        "Mean Anomaly(deg)": -141.07163854538166,
        "RAAN(deg)": 204.99579950860257,
        "Satellite Name": "Test1 915",
        "Satellite Number": 915,
        "Semi-Major Axis(m)": 6980739.136638005,
        "Time(s)": 100
    },
    {
        "Altitude(m)": 614685.5795291958,
        "Argument of Periapsis(deg)": 0.0011460840504626045,
        "Eccentricity": 0.0,
        "Inclination(deg)": 60.0,
        "Latitude(deg)": -33.690503035995754,
        "Longitude(deg)": -52.92534560236079,
        "Mean Anomaly(deg)": -140.45153239991987,
        "RAAN(deg)": 204.9953794594628,
        "Satellite Name": "Test1 915",
        "Satellite Number": 915,
        "Semi-Major Axis(m)": 6980739.136638005,
        "Time(s)": 110
    },
    {
        "Altitude(m)": 614885.0554349661,
        "Argument of Periapsis(deg)": 0.0012502735095955685,
        "Eccentricity": 0.0,
        "Inclination(deg)": 60.0,
        "Latitude(deg)": -34.18638450214884,
        "Longitude(deg)": -52.519003096031206,
        "Mean Anomaly(deg)": -139.83142625445802,
        "RAAN(deg)": 204.9949594103231,
        "Satellite Name": "Test1 915",
        "Satellite Number": 915,
        "Semi-Major Axis(m)": 6980739.136638005,
        "Time(s)": 120
    },
    {
        "Altitude(m)": 615084.5534746036,
        "Argument of Periapsis(deg)": 0.0013544629687285324,
        "Eccentricity": 0.0,
        "Inclination(deg)": 60.0,
        "Latitude(deg)": -34.680556743484026,
        "Longitude(deg)": -52.10741768459541,
        "Mean Anomaly(deg)": -139.21132010899623,
        "RAAN(deg)": 204.99453936118334,
        "Satellite Name": "Test1 915",
        "Satellite Number": 915,
        "Semi-Major Axis(m)": 6980739.136638005,
        "Time(s)": 130
    },
    {
        "Altitude(m)": 615283.9989082952,
        "Argument of Periapsis(deg)": 0.0014586524278614966,
        "Eccentricity": 0.0,
        "Inclination(deg)": 60.0,
        "Latitude(deg)": -35.172969440691354,
        "Longitude(deg)": -51.69044698401113,
        "Mean Anomaly(deg)": -138.59121396353436,
        "RAAN(deg)": 204.9941193120436,
        "Satellite Name": "Test1 915",
        "Satellite Number": 915,
        "Semi-Major Axis(m)": 6980739.136638005,
        "Time(s)": 140
    },
    {
        "Altitude(m)": 615483.3168712228,
        "Argument of Periapsis(deg)": 0.0015628418869944607,
        "Eccentricity": 0.0,
        "Inclination(deg)": 60.0,
        "Latitude(deg)": -35.66357078019138,
        "Longitude(deg)": -51.26794542722181,
        "Mean Anomaly(deg)": -137.97110781807254,
        "RAAN(deg)": 204.99369926290385,
        "Satellite Name": "Test1 915",
        "Satellite Number": 915,
        "Semi-Major Axis(m)": 6980739.136638005,
        "Time(s)": 150
    },
    {
        "Altitude(m)": 615682.4324065264,
        "Argument of Periapsis(deg)": 0.0016670313461274247,
        "Eccentricity": 0.0,
        "Inclination(deg)": 60.0,
        "Latitude(deg)": -36.152307398900824,
        "Longitude(deg)": -50.83976370572398,
        "Mean Anomaly(deg)": -137.35100167261072,
        "RAAN(deg)": 204.99327921376414,
        "Satellite Name": "Test1 915",
        "Satellite Number": 915,
        "Semi-Major Axis(m)": 6980739.136638005,
        "Time(s)": 160
    },
    {
        "Altitude(m)": 615881.2704982867,
        "Argument of Periapsis(deg)": 0.0017712208052603888,
        "Eccentricity": 0.0,
        "Inclination(deg)": 60.0,
        "Latitude(deg)": -36.63912432730797,
        "Longitude(deg)": -50.40574972728609,
        "Mean Anomaly(deg)": -136.73089552714887,
        "RAAN(deg)": 204.99285916462438,
        "Satellite Name": "Test1 915",
        "Satellite Number": 915,
        "Semi-Major Axis(m)": 6980739.136638005,
        "Time(s)": 170
    },
    {
        "Altitude(m)": 616079.7561045582,
        "Argument of Periapsis(deg)": 0.001875410264393353,
        "Eccentricity": 0.0,
        "Inclination(deg)": 60.0,
        "Latitude(deg)": -37.123964930841105,
        "Longitude(deg)": -49.9657480646085,
        "Mean Anomaly(deg)": -136.11078938168703,
        "RAAN(deg)": 204.99243911548464,
        "Satellite Name": "Test1 915",
        "Satellite Number": 915,
        "Semi-Major Axis(m)": 6980739.136638005,
        "Time(s)": 180
    },
    {
        "Altitude(m)": 616277.8141903282,
        "Argument of Periapsis(deg)": 0.0019795997235263173,
        "Eccentricity": 0.0,
        "Inclination(deg)": 60.0,
        "Latitude(deg)": -37.606770849524764,
        "Longitude(deg)": -49.51959940839467,
        "Mean Anomaly(deg)": -135.49068323622518,
        "RAAN(deg)": 204.99201906634488,
        "Satellite Name": "Test1 915",
        "Satellite Number": 915,
        "Semi-Major Axis(m)": 6980739.136638005,
        "Time(s)": 190
    }
]